[{"OBJECT_NAME":"STARLINK-31433","OBJECT_ID":"2024-049N","EPOCH":"2026-03-08T14:54:30.033216","MEAN_MOTION":15.27571687,"ECCENTRICITY":0.00013324,"INCLINATION":43.0018,"RA_OF_ASC_NODE":149.4846,"ARG_OF_PERICENTER":233.1987,"MEAN_ANOMALY":126.8743,"EPHEMERIS_TYPE":0,"CLASSIFICATION_TYPE":"U","NORAD_CAT_ID":59243,"ELEMENT_SET_NO":999,"REV_AT_EPOCH":11224,"BSTAR":-1.43934e-5,"MEAN_MOTION_DOT":-6.58e-6,"MEAN_MOTION_DDOT":0},{"OBJECT_NAME":"KUIPER-00274","OBJECT_ID":"2026-030AE","EPOCH":"2026-03-09T22:00:01.999584","MEAN_MOTION":15.29896925,"ECCENTRICITY":0.00182929,"INCLINATION":51.8831,"RA_OF_ASC_NODE":218.6923,"ARG_OF_PERICENTER":71.2033,"MEAN_ANOMALY":115.2248,"EPHEMERIS_TYPE":0,"CLASSIFICATION_TYPE":"U","NORAD_CAT_ID":67792,"ELEMENT_SET_NO":999,"REV_AT_EPOCH":410,"BSTAR":0.0017989756,"MEAN_MOTION_DOT":0.00053102,"MEAN_MOTION_DDOT":0}]
